ONEWEB-0201             
1 48241U 21031AH  22206.71759053  .00000032  00000+0  52346-4 0  9993
2 48241  87.9026 212.4349 0002064  85.1487 274.9878 13.14511917 61503
ONEWEB-0207             
1 48242U 21031AJ  22206.54103552  .00000248  00000+0  63531-3 0  9998
2 48242  87.9009 212.4422 0001790  82.8014 277.3319 13.14502093 61391
ONEWEB-0208             
1 48243U 21031AK  22206.51778483 -.00000062  00000+0 -20087-3 0  9992
2 48243  87.9000 212.4220 0002560  84.5499 275.5922 13.14503925 61408
ONEWEB-0200             
1 48244U 21031AL  22206.71020263  .00000163  00000+0  40550-3 0  9998
2 48244  87.9008 212.3738 0002607  83.4636 276.6790 13.14501432 61353
ONEWEB-0217             
1 48245U 21031AM  22206.72711080 -.00000158  00000+0 -45936-3 0  9993
2 48245  87.9008 212.3964 0002615  82.8479 277.2948 13.14502109 61301
ONEWEB-0211             
1 48767U 21045A   22207.20406873 -.00000068  00000+0 -21472-3 0  9991
2 48767  87.9105 182.1502 0002425  89.6790 270.4618 13.15548199 58585
ONEWEB-0223             
1 48768U 21045B   22206.69278761  .00000155  00000+0  37839-3 0  9996
2 48768  87.9113 182.2230 0002603  94.0594 266.0834 13.15546596 57370
ONEWEB-0230             
1 48769U 21045C   22207.19771426 -.00000668  00000+0 -18095-2 0  9992
2 48769  87.9149 182.1427 0002226  91.4582 268.6803 13.15546085 58813
ONEWEB-0237             
1 48770U 21045D   22207.18716815 -.00000162  00000+0 -46533-3 0  9992
2 48770  87.9137 182.0207 0002345 100.8186 259.3209 13.15548890 58558
ONEWEB-0235             
1 48771U 21045E   22206.62729212  .00000085  00000+0  19043-3 0  9994
2 48771  87.9156 182.1700 0002742 107.2439 252.8992 13.15550222 57347
ONEWEB-0242             
1 48772U 21045F   22206.69703026  .00000123  00000+0  29280-3 0  9994
2 48772  87.9106 182.2109 0002033  94.8958 265.2405 13.15550982 57392
ONEWEB-0241             
1 48773U 21045G   22206.68435283  .00000129  00000+0  30804-3 0  9991
2 48773  87.9096 182.1893 0002779  86.8779 273.2669 13.15548591 57304
ONEWEB-0243             
1 48774U 21045H   22206.86814210 -.00000027  00000+0 -10464-3 0  9992
2 48774  87.9159 182.1731 0002244 102.2430 257.8952 13.15549938 58489
ONEWEB-0222             
1 48775U 21045J   22207.16180436  .00000123  00000+0  29214-3 0  9991
2 48775  87.9152 182.1389 0002461  89.5122 270.6291 13.15546018 58551
ONEWEB-0244             
1 48776U 21045K   22206.66425756 -.00000007  00000+0 -52691-4 0  9992
2 48776  87.9094 182.1808 0002040 108.1076 252.0277 13.15549994 57937
ONEWEB-0247             
1 48777U 21045L   22206.87449845 -.00000097  00000+0 -29141-3 0  9993
2 48777  87.9108 182.1298 0002614 103.3398 256.8024 13.15547199 58532
ONEWEB-0245             
1 48778U 21045M   22206.64207976 -.00000256  00000+0 -71362-3 0  9995
2 48778  87.9162 182.1804 0002595  82.7589 277.3836 13.15548849 57346
ONEWEB-0229             
1 48779U 21045N   22206.86391268 -.00000047  00000+0 -15857-3 0  9993
2 48779  87.9157 182.1278 0002523  91.8624 268.2795 13.15549701 58531
ONEWEB-0228             
1 48780U 21045P   22207.18294230 -.00000145  00000+0 -41877-3 0  9992
2 48780  87.9137 182.0774 0002136  93.7182 266.4192 13.15548649 58497
ONEWEB-0232             
1 48781U 21045Q   22206.87235455 -.00000031  00000+0 -11724-3 0  9994
2 48781  87.9045 182.2735 0002333  84.0513 276.0883 13.15554466 58763
ONEWEB-0231             
1 48782U 21045R   22206.69913904  .00000114  00000+0  26875-3 0  9990
2 48782  87.9019 182.2300 0002397  98.2570 261.8832 13.15547717 57310
ONEWEB-0234             
1 48783U 21045S   22207.18082932 -.00000120  00000+0 -35387-3 0  9991
2 48783  87.9111 182.1134 0002314  82.1851 277.9542 13.15549982 58640
ONEWEB-0238             
1 48784U 21045T   22206.88823698 -.00000007  00000+0 -51506-4 0  9996
2 48784  87.9144 182.1985 0002282  81.5690 278.5699 13.15549611 57377
ONEWEB-0240             
1 48785U 21045U   22206.68222727  .00000097  00000+0  22259-3 0  9990
2 48785  87.9102 182.2035 0002878  88.8881 271.2579 13.15550503 57371
ONEWEB-0246             
1 48786U 21045V   22207.21039221  .00000009  00000+0 -91048-5 0  9994
2 48786  87.9097 182.1043 0002338  97.2484 262.8912 13.15550074 58435
ONEWEB-0210             
1 48787U 21045W   22206.88082655 -.00000112  00000+0 -33207-3 0  9993
2 48787  87.9104 182.1726 0002147 112.1652 247.9706 13.15547241 57318
ONEWEB-0214             
1 48788U 21045X   22206.66319579 -.00000309  00000+0 -85546-3 0  9999
2 48788  87.9114 182.2424 0001878 116.8280 243.3043 13.15547040 57258
ONEWEB-0221             
1 48789U 21045Y   22206.66955261 -.00000087  00000+0 -26528-3 0  9992
2 48789  87.9098 182.2282 0002355  92.6122 267.5278 13.15549713 57346
ONEWEB-0213             
1 48790U 21045Z   22206.65686148 -.00000128  00000+0 -37526-3 0  9994
2 48790  87.9167 182.2280 0002371  97.0641 263.0759 13.15545302 57408
ONEWEB-0212             
1 48791U 21045AA  22206.63786270 -.00000016  00000+0 -77756-4 0  9996
2 48791  87.9163 182.2577 0002004  78.8272 281.3084 13.15549457 57391
ONEWEB-0227             
1 48792U 21045AB  22206.85970886 -.00000021  00000+0 -88571-4 0  9992
2 48792  87.9183 182.2136 0002480  87.6934 272.4481 13.15548091 58505
ONEWEB-0226             
1 48793U 21045AC  22206.62518942  .00000130  00000+0  31094-3 0  9995
2 48793  87.9158 182.2049 0002310 107.7257 252.4125 13.15549316 57317
ONEWEB-0224             
1 48794U 21045AD  22206.66744393 -.00000079  00000+0 -24274-3 0  9997
2 48794  87.9091 182.2006 0002373  75.0970 285.0423 13.15547178 57244
ONEWEB-0233             
1 48795U 21045AE  22206.68541515  .00000180  00000+0  44343-3 0  9991
2 48795  87.9163 182.1946 0002525  85.9448 274.1970 13.15549165 57251
ONEWEB-0190             
1 48796U 21045AF  22207.19139365 -.00000127  00000+0 -37147-3 0  9992
2 48796  87.9169 182.0856 0003069 108.5844 251.5620 13.15550168 58520
ONEWEB-0236             
1 48797U 21045AG  22206.67589705  .00000045  00000+0  84642-4 0  9992
2 48797  87.9100 182.2471 0002194  88.9846 271.1535 13.15550234 57225
ONEWEB-0248             
1 48798U 21045AH  22206.46038542  .00000256  00000+0  64620-3 0  9995
2 48798  87.9103 182.2624 0003202  91.8563 268.2934 13.15547993 57351
ONEWEB-0225             
1 48799U 21045AJ  22207.16603482  .00000174  00000+0  42883-3 0  9991
2 48799  87.9149 182.1535 0002765  96.0713 264.0733 13.15548241 58594
ONEWEB-0215             
1 48800U 21045AK  22206.90828283  .00000101  00000+0  23318-3 0  9995
2 48800  87.9098 182.1696 0003204  97.2168 262.9327 13.15549854 58412
ONEWEB-0216             
1 48801U 21045AL  22206.69067833  .00000100  00000+0  23274-3 0  9998
2 48801  87.9144 182.2537 0001860  94.3509 265.7834 13.15547568 57270
ONEWEB-0239             
1 48802U 21045AM  22206.69490068  .00000210  00000+0  52265-3 0  9993
2 48802  87.9147 182.2559 0003060  96.7455 263.4024 13.15546527 57313
ONEWEB-0249             
1 48967U 21060A   22207.14801722  .00000089  00000+0  19803-3 0  9991
2 48967  87.9142 151.8930 0002006  85.5213 274.6147 13.16591764 53783
ONEWEB-0250             
1 48968U 21060B   22206.62065187 -.00000013  00000+0 -68010-4 0  9995
2 48968  87.9144 152.0010 0002454  85.3284 274.8127 13.16596441 52406
ONEWEB-0252             
1 48970U 21060D   22207.10426622 -.00000042  00000+0 -14332-3 0  9996
2 48970  87.9119 151.8881 0002106  91.1577 268.9795 13.16594915 53824
ONEWEB-0253             
1 48971U 21060E   22206.79106466 -.00000035  00000+0 -12478-3 0  9993
2 48971  87.9130 151.9757 0002385  94.0421 266.0982 13.16594806 52421
ONEWEB-0254             
1 48972U 21060F   22206.79797117 -.00000047  00000+0 -15572-3 0  9994
2 48972  87.9128 151.9337 0002346  93.8187 266.3212 13.16596432 52422
ONEWEB-0255             
1 48973U 21060G   22207.14110173  .00000093  00000+0  21016-3 0  9995
2 48973  87.9140 151.9442 0002133  83.5949 276.5425 13.16597100 53838
ONEWEB-0256             
1 48974U 21060H   22206.78647291 -.00000061  00000+0 -19423-3 0  9997
2 48974  87.9128 151.9704 0001766  80.3626 279.7705 13.16593254 52464
ONEWEB-0257             
1 48975U 21060J   22207.12268669 -.00000050  00000+0 -16479-3 0  9991
2 48975  87.9133 151.9414 0002008  92.0683 268.0678 13.16594766 53754
ONEWEB-0258             
1 48976U 21060K   22206.82100792 -.00000030  00000+0 -11095-3 0  9997
2 48976  87.9141 152.0012 0002217  84.9276 275.2108 13.16595338 52438
ONEWEB-0259             
1 48977U 21060L   22207.12037232 -.00000374  00000+0 -10127-2 0  9995
2 48977  87.9144 151.9187 0002635  90.0293 270.1140 13.16593417 53790
ONEWEB-0260             
1 48978U 21060M   22206.58150620 -.00000097  00000+0 -28745-3 0  9990
2 48978  87.9129 152.0243 0001412 105.6648 254.4639 13.16593656 52419
ONEWEB-0261             
1 48979U 21060N   22206.85095258  .00000081  00000+0  17914-3 0  9993
2 48979  87.9136 151.9761 0002115  94.0666 266.0707 13.16595490 53800
ONEWEB-0262             
1 48980U 21060P   22207.13650501  .00000026  00000+0  34173-4 0  9991
2 48980  87.9151 151.8726 0002793  86.8289 273.3161 13.16592691 53806
ONEWEB-0263             
1 48981U 21060Q   22206.86475323 -.00000149  00000+0 -42442-3 0  9993
2 48981  87.9157 151.9238 0002686  96.2034 263.9403 13.16597044 52435
ONEWEB-0264             
1 48982U 21060R   22207.12847288 -.00000021  00000+0 -87757-4 0  9995
2 48982  87.9167 151.8311 0002154  85.9084 274.2293 13.16591270 53762
ONEWEB-0266             
1 48984U 21060T   22206.77035071 -.00000005  00000+0 -47010-4 0  9996
2 48984  87.9151 151.9569 0002140  79.2322 280.9050 13.16594208 52419
ONEWEB-0267             
1 48985U 21060U   22206.78185122 -.00000004  00000+0 -42938-4 0  9994
2 48985  87.9138 151.9546 0002157  99.1097 261.0278 13.16595256 52425
ONEWEB-0268             
1 48986U 21060V   22206.82559493 -.00000614  00000+0 -16400-2 0  9996
2 48986  87.9148 151.9480 0001941  84.0549 276.0803 13.16593298 52692
